IRIDIUM 119             
1 42959U 17061E   23249.55291024  .00000092  00000+0  25617-4 0  9997
2 42959  86.3914  89.2948 0002366  87.0445 273.1022 14.34212569309384
IRIDIUM 107             
1 42960U 17061F   23249.29286158  .00000080  00000+0  21517-4 0  9994
2 42960  86.3914  89.4187 0002320  84.0649 276.0811 14.34214323309351
IRIDIUM 132             
1 42961U 17061G   23249.50850963  .00000077  00000+0  20274-4 0  9995
2 42961  86.3915  89.3147 0002326  86.1730 273.9732 14.34214973309380
IRIDIUM 136             
1 42962U 17061H   23249.54022240  .00000049  00000+0  10383-4 0  9998
2 42962  86.3916  89.3035 0002208  93.4233 266.7216 14.34213437309400
IRIDIUM 125             
1 42964U 17061K   23248.97573120  .00000049  00000+0  10258-4 0  9995
2 42964  86.3920  89.6283 0002376  86.1189 274.0279 14.34214412309348
